{
  "type": "FeatureCollection",
  "features": [
    {
      "type": "Feature",
      "properties": {
        "norad_id": 39546,
        "name": "COSMOS 2251 DEB",
        "group": "cosmos-2251-debris",
        "lat": -41.50218863647089,
        "lon": 116.61955319234545,
        "alt_km": 569.7842291192073,
        "timestamp": "2025-12-15T10:55:21.543118+00:00",
        "meta_object_name": "COSMOS 2251 DEB",
        "meta_object_id": "1993-036BUC",
        "meta_epoch": "2025-12-14T02:56:02.642784",
        "meta_mean_motion": 14.92108062,
        "meta_eccentricity": 0.00440773,
        "meta_inclination": 73.9975,
        "meta_ra_of_asc_node": 134.0104,
        "meta_arg_of_pericenter": 293.868,
        "meta_mean_anomaly": 65.7886,
        "meta_ephemeris_type": 0,
        "meta_classification_type": "U",
        "meta_norad_cat_id": 39546,
        "meta_element_set_no": 999,
        "meta_rev_at_epoch": 64457,
        "meta_bstar": 0.0014045613,
        "meta_mean_motion_dot": 0.0001454,
        "meta_mean_motion_ddot": 0,
        "tle_line1": "1 39546U 93036BUC 25348.12225281  .00014540  00000+0  14046-2 0  9993",
        "tle_line2": "2 39546  73.9975 134.0104 0044077 293.8680  65.7886 14.92108062644579"
      },
      "geometry": {
        "type": "Point",
        "coordinates": [
          116.61955319234545,
          -41.50218863647089
        ]
      }
    },
    {
      "type": "Feature",
      "properties": {
        "norad_id": 39547,
        "name": "COSMOS 2251 DEB",
        "group": "cosmos-2251-debris",
        "lat": 54.36784246193174,
        "lon": 36.41922895830443,
        "alt_km": 547.7060428381537,
        "timestamp": "2025-12-15T10:55:21.543128+00:00",
        "meta_object_name": "COSMOS 2251 DEB",
        "meta_object_id": "1993-036BUD",
        "meta_epoch": "2025-12-11T09:19:23.142720",
        "meta_mean_motion": 15.03149488,
        "meta_eccentricity": 0.00052092,
        "meta_inclination": 74.0018,
        "meta_ra_of_asc_node": 21.1464,
        "meta_arg_of_pericenter": 16.2917,
        "meta_mean_anomaly": 0.6798,
        "meta_ephemeris_type": 0,
        "meta_classification_type": "U",
        "meta_norad_cat_id": 39547,
        "meta_element_set_no": 999,
        "meta_rev_at_epoch": 64005,
        "meta_bstar": 0.0051209995,
        "meta_mean_motion_dot": 0.00069871,
        "meta_mean_motion_ddot": 0,
        "tle_line1": "1 39547U 93036BUD 25345.38846230  .00069871  00000+0  51210-2 0  9993",
        "tle_line2": "2 39547  74.0018  21.1464 0005209  16.2917   0.6798 15.03149488640058"
      },
      "geometry": {
        "type": "Point",
        "coordinates": [
          36.41922895830443,
          54.36784246193174
        ]
      }
    },
    {
      "type": "Feature",
      "properties": {
        "norad_id": 39553,
        "name": "COSMOS 2251 DEB",
        "group": "cosmos-2251-debris",
        "lat": -62.1597987037156,
        "lon": -67.51355331591759,
        "alt_km": 1043.8575181860015,
        "timestamp": "2025-12-15T10:55:21.543138+00:00",
        "meta_object_name": "COSMOS 2251 DEB",
        "meta_object_id": "1993-036BUK",
        "meta_epoch": "2025-12-07T06:00:50.455872",
        "meta_mean_motion": 13.99876591,
        "meta_eccentricity": 0.02014092,
        "meta_inclination": 74.0304,
        "meta_ra_of_asc_node": 339.5232,
        "meta_arg_of_pericenter": 116.8065,
        "meta_mean_anomaly": 245.3825,
        "meta_ephemeris_type": 0,
        "meta_classification_type": "U",
        "meta_norad_cat_id": 39553,
        "meta_element_set_no": 999,
        "meta_rev_at_epoch": 75540,
        "meta_bstar": 0.00088887208,
        "meta_mean_motion_dot": 1.532e-05,
        "meta_mean_motion_ddot": 0,
        "tle_line1": "1 39553U 93036BUK 25341.25058398  .00001532  00000+0  88887-3 0  9993",
        "tle_line2": "2 39553  74.0304 339.5232 0201409 116.8065 245.3825 13.99876591755403"
      },
      "geometry": {
        "type": "Point",
        "coordinates": [
          -67.51355331591759,
          -62.1597987037156
        ]
      }
    },
    {
      "type": "Feature",
      "properties": {
        "norad_id": 39554,
        "name": "COSMOS 2251 DEB",
        "group": "cosmos-2251-debris",
        "lat": -34.91506027487812,
        "lon": -112.54265009366085,
        "alt_km": 539.603168423826,
        "timestamp": "2025-12-15T10:55:21.543149+00:00",
        "meta_object_name": "COSMOS 2251 DEB",
        "meta_object_id": "1993-036BUL",
        "meta_epoch": "2025-12-10T06:12:03.924864",
        "meta_mean_motion": 15.10130993,
        "meta_eccentricity": 0.0002993,
        "meta_inclination": 74.0187,
        "meta_ra_of_asc_node": 269.7383,
        "meta_arg_of_pericenter": 74.7531,
        "meta_mean_anomaly": 81.5927,
        "meta_ephemeris_type": 0,
        "meta_classification_type": "U",
        "meta_norad_cat_id": 39554,
        "meta_element_set_no": 999,
        "meta_rev_at_epoch": 64347,
        "meta_bstar": 0.0046896,
        "meta_mean_motion_dot": 0.000773,
        "meta_mean_motion_ddot": 0,
        "tle_line1": "1 39554U 93036BUL 25344.25837876  .00077300  00000+0  46896-2 0  9992",
        "tle_line2": "2 39554  74.0187 269.7383 0002993  74.7531  81.5927 15.10130993643471"
      },
      "geometry": {
        "type": "Point",
        "coordinates": [
          -112.54265009366085,
          -34.91506027487812
        ]
      }
    },
    {
      "type": "Feature",
      "properties": {
        "norad_id": 39583,
        "name": "COSMOS 2251 DEB",
        "group": "cosmos-2251-debris",
        "lat": -49.62050021317605,
        "lon": 81.81597965109249,
        "alt_km": 749.1111446002888,
        "timestamp": "2025-12-15T10:55:21.543162+00:00",
        "meta_object_name": "COSMOS 2251 DEB",
        "meta_object_id": "1993-036BUN",
        "meta_epoch": "2025-12-14T10:50:25.115712",
        "meta_mean_motion": 14.60484524,
        "meta_eccentricity": 0.01368617,
        "meta_inclination": 73.9326,
        "meta_ra_of_asc_node": 243.9349,
        "meta_arg_of_pericenter": 357.0226,
        "meta_mean_anomaly": 3.0108,
        "meta_ephemeris_type": 0,
        "meta_classification_type": "U",
        "meta_norad_cat_id": 39583,
        "meta_element_set_no": 999,
        "meta_rev_at_epoch": 61804,
        "meta_bstar": 0.0018336119,
        "meta_mean_motion_dot": 0.00010132,
        "meta_mean_motion_ddot": 0,
        "tle_line1": "1 39583U 93036BUN 25348.45167958  .00010132  00000+0  18336-2 0  9995",
        "tle_line2": "2 39583  73.9326 243.9349 0136861 357.0226   3.0108 14.60484524618043"
      },
      "geometry": {
        "type": "Point",
        "coordinates": [
          81.81597965109249,
          -49.62050021317605
        ]
      }
    },
    {
      "type": "Feature",
      "properties": {
        "norad_id": 39585,
        "name": "COSMOS 2251 DEB",
        "group": "cosmos-2251-debris",
        "lat": 39.08736312119033,
        "lon": -50.41055349343247,
        "alt_km": 649.342603756777,
        "timestamp": "2025-12-15T10:55:21.543174+00:00",
        "meta_object_name": "COSMOS 2251 DEB",
        "meta_object_id": "1993-036BUQ",
        "meta_epoch": "2025-12-14T03:27:48.164544",
        "meta_mean_motion": 14.5867271,
        "meta_eccentricity": 0.00655931,
        "meta_inclination": 74.0424,
        "meta_ra_of_asc_node": 298.6434,
        "meta_arg_of_pericenter": 59.1971,
        "meta_mean_anomaly": 301.5627,
        "meta_ephemeris_type": 0,
        "meta_classification_type": "U",
        "meta_norad_cat_id": 39585,
        "meta_element_set_no": 999,
        "meta_rev_at_epoch": 62541,
        "meta_bstar": 0.00040250434,
        "meta_mean_motion_dot": 1.903e-05,
        "meta_mean_motion_ddot": 0,
        "tle_line1": "1 39585U 93036BUQ 25348.14430746  .00001903  00000+0  40250-3 0  9998",
        "tle_line2": "2 39585  74.0424 298.6434 0065593  59.1971 301.5627 14.58672710625412"
      },
      "geometry": {
        "type": "Point",
        "coordinates": [
          -50.41055349343247,
          39.08736312119033
        ]
      }
    },
    {
      "type": "Feature",
      "properties": {
        "norad_id": 39586,
        "name": "COSMOS 2251 DEB",
        "group": "cosmos-2251-debris",
        "lat": -10.062443849900596,
        "lon": 46.291033592527604,
        "alt_km": 895.6461692610874,
        "timestamp": "2025-12-15T10:55:21.543185+00:00",
        "meta_object_name": "COSMOS 2251 DEB",
        "meta_object_id": "1993-036BUR",
        "meta_epoch": "2025-12-11T10:34:49.908288",
        "meta_mean_motion": 14.21221392,
        "meta_eccentricity": 0.01007513,
        "meta_inclination": 74.009,
        "meta_ra_of_asc_node": 230.5784,
        "meta_arg_of_pericenter": 5.5344,
        "meta_mean_anomaly": 174.6065,
        "meta_ephemeris_type": 0,
        "meta_classification_type": "U",
        "meta_norad_cat_id": 39586,
        "meta_element_set_no": 999,
        "meta_rev_at_epoch": 60953,
        "meta_bstar": 0.00065665467,
        "meta_mean_motion_dot": 1.479e-05,
        "meta_mean_motion_ddot": 0,
        "tle_line1": "1 39586U 93036BUR 25345.44085542  .00001479  00000+0  65665-3 0  9994",
        "tle_line2": "2 39586  74.0090 230.5784 0100751   5.5344 174.6065 14.21221392609536"
      },
      "geometry": {
        "type": "Point",
        "coordinates": [
          46.291033592527604,
          -10.062443849900596
        ]
      }
    }
  ]
}